[{"OBJECT_NAME":"SDA_1674","OBJECT_ID":"2025-230L","EPOCH":"2026-03-09T17:39:14.953536","MEAN_MOTION":13.85421025,"ECCENTRICITY":0.00045935,"INCLINATION":81.3001,"RA_OF_ASC_NODE":303.8213,"ARG_OF_PERICENTER":113.5479,"MEAN_ANOMALY":246.6161,"EPHEMERIS_TYPE":0,"CLASSIFICATION_TYPE":"U","NORAD_CAT_ID":65984,"ELEMENT_SET_NO":999,"REV_AT_EPOCH":2005,"BSTAR":0.00028416236,"MEAN_MOTION_DOT":3.35e-6,"MEAN_MOTION_DDOT":0},{"OBJECT_NAME":"FENGYUN 1C DEB","OBJECT_ID":"1999-025CRW","EPOCH":"2026-03-04T09:14:08.346912","MEAN_MOTION":13.94470252,"ECCENTRICITY":0.03956779,"INCLINATION":99.0206,"RA_OF_ASC_NODE":112.9926,"ARG_OF_PERICENTER":359.1071,"MEAN_ANOMALY":0.9342,"EPHEMERIS_TYPE":0,"CLASSIFICATION_TYPE":"U","NORAD_CAT_ID":32128,"ELEMENT_SET_NO":999,"REV_AT_EPOCH":64123,"BSTAR":0.00066692477,"MEAN_MOTION_DOT":1.661e-5,"MEAN_MOTION_DDOT":0}]
